ONEWEB-0446             
1 51640U 22012U   24172.55274899  .00000668  00000+0  18765-2 0  9996
2 51640  87.8940 180.7561 0001745  85.3468 274.7858 13.10372495114162
ONEWEB-0448             
1 51641U 22012V   24172.55772796  .00000575  00000+0  16110-2 0  9995
2 51641  87.8938 180.7560 0002203  90.2947 269.8432 13.10373043114136
ONEWEB-0449             
1 51642U 22012W   24172.56272872  .00000423  00000+0  11756-2 0  9990
2 51642  87.8930 180.7501 0001945  98.2131 261.9217 13.10371393114140
ONEWEB-0451             
1 51643U 22012X   24172.95515672  .00000035  00000+0  57265-4 0  9998
2 51643  87.9163 150.4257 0002191  89.7722 270.3661 13.17505149119324
ONEWEB-0452             
1 51644U 22012Y   24172.95355187  .00000044  00000+0  79925-4 0  9999
2 51644  87.9170 150.4663 0002149  96.0400 264.0977 13.17510952119330
ONEWEB-0456             
1 51646U 22012AA  24172.95444585  .00000050  00000+0  10614-3 0  9998
2 51646  87.8925 180.6445 0002142  80.9838 279.1532 13.10370154115524
ONEWEB-0457             
1 51647U 22012AB  24172.54940310  .00000274  00000+0  74876-3 0  9999
2 51647  87.8939 180.7467 0001734  94.5884 265.5441 13.10377762114184
ONEWEB-0458             
1 51648U 22012AC  24172.57099958  .00000002  00000+0 -31094-4 0  9992
2 51648  87.8936 180.7585 0002173  93.7289 266.4087 13.10369843114144
